TIANMU-1 08             
1 57400U 23101B   26066.00237819  .00000346  00000+0  14775-4 0  9993
2 57400  97.2717 118.7901 0006380 134.2174 225.9592 15.29204229146020
STARLINK-30335          
1 57710U 23129N   26068.15953258  .00001086  00000+0  50161-4 0  9998
2 57710  42.9975 120.7118 0001272 246.3982 113.6736 15.26729078140609
